,SEARCHVAL,BLK_NO,ROAD_NAME,BUILDING,ADDRESS,POSTAL,X,Y,LATITUDE,LONGITUDE,LONGTITUDE,address
0,WHEE!CANOPUS STUDENT CARE @ LAKESIDE PRIMARY SCHOOL,161,CORPORATION WALK,WHEE!CANOPUS STUDENT CARE @ LAKESIDE PRIMARY SCHOOL,161 CORPORATION WALK WHEE!CANOPUS STUDENT CARE @ LAKESIDE PRIMARY SCHOOL SINGAPORE 618310,618310,15177.0483984314,35616.6021022275,1.33837569571569,103.718096899655,103.718096899655,Lakeside Primary School
1,LAKESIDE PRIMARY SCHOOL,161,CORPORATION WALK,LAKESIDE PRIMARY SCHOOL,161 CORPORATION WALK LAKESIDE PRIMARY SCHOOL SINGAPORE 618310,618310,15171.8889481956,35616.6031616069,1.33837570310393,103.718050539055,103.718050539055,Lakeside Primary School
0,NEW TOWN PRIMARY SCHOOL,300,TANGLIN HALT ROAD,NEW TOWN PRIMARY SCHOOL,300 TANGLIN HALT ROAD NEW TOWN PRIMARY SCHOOL SINGAPORE 148812,148812,24288.024286679,31352.0822832659,1.29981138774553,103.79996481092,103.79996481092,New Town Primary School
0,GUANGYANG PRIMARY SCHOOL,6,BISHAN STREET 12,GUANGYANG PRIMARY SCHOOL,6 BISHAN STREET 12 GUANGYANG PRIMARY SCHOOL SINGAPORE 579806,579806,29776.8599536903,36464.0808871016,1.34604266465632,103.849284759591,103.849284759591,Guangyang Primary School
0,INNOVA PRIMARY SCHOOL,80,WOODLANDS DRIVE 17,INNOVA PRIMARY SCHOOL,80 WOODLANDS DRIVE 17 INNOVA PRIMARY SCHOOL SINGAPORE 737888,737888,23241.2796210172,45657.5319459569,1.42918459185655,103.790557056487,103.790557056487,Innova Primary School
0,PRINCESS ELIZABETH PRIMARY SCHOOL,30,BUKIT BATOK WEST AVENUE 3,PRINCESS ELIZABETH PRIMARY SCHOOL,30 BUKIT BATOK WEST AVENUE 3 PRINCESS ELIZABETH PRIMARY SCHOOL SINGAPORE 659163,659163,17725.9266880266,36812.7858268302,1.34919451758524,103.740999625133,103.740999625133,Princess Elizabeth Primary School
1,BIG HEART STUDENT CARE (PRINCESS ELIZABETH PRIMARY SCHOOL),30,BUKIT BATOK WEST AVENUE 3,BIG HEART STUDENT CARE (PRINCESS ELIZABETH PRIMARY SCHOOL),30 BUKIT BATOK WEST AVENUE 3 BIG HEART STUDENT CARE (PRINCESS ELIZABETH PRIMARY SCHOOL) SINGAPORE 659163,659163,17694.7193374345,36812.396792436,1.34919098857587,103.740719208011,103.740719208011,Princess Elizabeth Primary School
0,DAZHONG PRIMARY SCHOOL,35,BUKIT BATOK STREET 31,DAZHONG PRIMARY SCHOOL,35 BUKIT BATOK STREET 31 DAZHONG PRIMARY SCHOOL SINGAPORE 659441,659441,18523.000199615,37903.5212233271,1.35905899221007,103.748161477711,103.748161477711,Dazhong Primary School
0,PUNGGOL VIEW PRIMARY SCHOOL,9,PUNGGOL PLACE,PUNGGOL VIEW PRIMARY SCHOOL,9 PUNGGOL PLACE PUNGGOL VIEW PRIMARY SCHOOL SINGAPORE 828845,828845,36020.1741489889,43020.2572509032,1.40533331354236,103.905386541875,103.905386541875,Punggol View Primary School
0,LEARNING LEAP PTE LTD (FRONTIER PRIMARY SCHOOL),20,JURONG WEST STREET 61,LEARNING LEAP PTE LTD (FRONTIER PRIMARY SCHOOL),20 JURONG WEST STREET 61 LEARNING LEAP PTE LTD (FRONTIER PRIMARY SCHOOL) SINGAPORE 648200,648200,13127.742393123,35425.1252935641,1.33664311192979,103.699682818103,103.699682818103,Frontier Primary School
1,FRONTIER PRIMARY SCHOOL,20,JURONG WEST STREET 61,FRONTIER PRIMARY SCHOOL,20 JURONG WEST STREET 61 FRONTIER PRIMARY SCHOOL SINGAPORE 648200,648200,13127.7416969594,35425.1264134794,1.33664312205755,103.699682811847,103.699682811847,Frontier Primary School
0,SHG STUDENT CARE (GREENWOOD PRIMARY SCHOOL),11,WOODLANDS DRIVE 62,SHG STUDENT CARE (GREENWOOD PRIMARY SCHOOL),11 WOODLANDS DRIVE 62 SHG STUDENT CARE (GREENWOOD PRIMARY SCHOOL) SINGAPORE 737942,737942,24807.3263021316,46865.6384109538,1.44011048816857,103.804629302637,103.804629302637,Greenwood Primary School
1,GREENWOOD PRIMARY SCHOOL,11,WOODLANDS DRIVE 62,GREENWOOD PRIMARY SCHOOL,11 WOODLANDS DRIVE 62 GREENWOOD PRIMARY SCHOOL SINGAPORE 737942,737942,24807.3255151641,46865.6394703332,1.4401104977491,103.804629295565,103.804629295565,Greenwood Primary School
0,CASUARINA PRIMARY SCHOOL,30,PASIR RIS STREET 41,CASUARINA PRIMARY SCHOOL,30 PASIR RIS STREET 41 CASUARINA PRIMARY SCHOOL SINGAPORE 518935,518935,41796.6535177063,39421.9077859409,1.37278901646361,103.957291273316,103.957291273316,Casuarina Primary School
0,MAHA BODHI SCHOOL,12,UBI AVENUE 1,MAHA BODHI SCHOOL,12 UBI AVENUE 1 MAHA BODHI SCHOOL SINGAPORE 408932,408932,35565.4979109308,34521.1795873791,1.32847086631011,103.901298737042,103.901298737042,Maha Bodhi School
1,MAHA BODHI SCHOOL,10,UBI AVENUE 1,MAHA BODHI SCHOOL,10 UBI AVENUE 1 MAHA BODHI SCHOOL SINGAPORE 408931,408931,35590.9736858578,34514.1982163992,1.32840772296083,103.901527649046,103.901527649046,Maha Bodhi School
2,AFTER SCHOOL @ MAHA BODHI SCHOOL,10,UBI AVENUE 1,AFTER SCHOOL @ MAHA BODHI SCHOOL,10 UBI AVENUE 1 AFTER SCHOOL @ MAHA BODHI SCHOOL SINGAPORE 408931,408931,35566.4064952666,34533.273462953,1.32858023873554,103.901306904157,103.901306904157,Maha Bodhi School
0,ROSYTH SCHOOL,21,SERANGOON NORTH AVENUE 4,ROSYTH SCHOOL,21 SERANGOON NORTH AVENUE 4 ROSYTH SCHOOL SINGAPORE 555855,555855,32604.4939331803,39435.60874011,1.37291579617883,103.874693245991,103.874693245991,Rosyth School
0,GREENDALE PRIMARY SCHOOL,50,EDGEDALE PLAINS,GREENDALE PRIMARY SCHOOL,50 EDGEDALE PLAINS GREENDALE PRIMARY SCHOOL SINGAPORE 828848,828848,36819.1791816913,42032.7752088681,1.39640265559055,103.912565965047,103.912565965047,Greendale Primary School
0,CLEMENTI PRIMARY SCHOOL,8,CLEMENTI AVENUE 3,CLEMENTI PRIMARY SCHOOL,8 CLEMENTI AVENUE 3 CLEMENTI PRIMARY SCHOOL SINGAPORE 129903,129903,20180.3231637673,33121.0532152876,1.31580856291998,103.76305484091,103.76305484091,Clementi Primary School
0,NORTH SPRING PRIMARY SCHOOL,1,RIVERVALE STREET,NORTH SPRING PRIMARY SCHOOL,1 RIVERVALE STREET NORTH SPRING PRIMARY SCHOOL SINGAPORE 545088,545088,35811.7284730263,41051.4541543834,1.38752823629059,103.903512956253,103.903512956253,North Spring Primary School
0,KRANJI PRIMARY SCHOOL,11,CHOA CHU KANG STREET 54,KRANJI PRIMARY SCHOOL,11 CHOA CHU KANG STREET 54 KRANJI PRIMARY SCHOOL SINGAPORE 689189,689189,18440.1137779122,41757.1792240608,1.39391003097099,103.747415441682,103.747415441682,Kranji Primary School
0,PEI TONG PRIMARY SCHOOL,15,CLEMENTI AVENUE 5,PEI TONG PRIMARY SCHOOL,15 CLEMENTI AVENUE 5 PEI TONG PRIMARY SCHOOL SINGAPORE 129857,129857,20683.5151962265,33158.5746488906,1.3161480173441,103.767576264023,103.767576264023,Pei Tong Primary School
1,LEARNING LEAP PTE LTD (PEI TONG PRIMARY SCHOOL),15,CLEMENTI AVENUE 5,LEARNING LEAP PTE LTD (PEI TONG PRIMARY SCHOOL),15 CLEMENTI AVENUE 5 LEARNING LEAP PTE LTD (PEI TONG PRIMARY SCHOOL) SINGAPORE 129857,129857,20668.2404885115,33215.772784153,1.31666529308968,103.767438999533,103.767438999533,Pei Tong Primary School
0,HORIZON PRIMARY SCHOOL,61,EDGEDALE PLAINS,HORIZON PRIMARY SCHOOL,61 EDGEDALE PLAINS HORIZON PRIMARY SCHOOL SINGAPORE 828819,828819,36875.4279616438,42431.528380746,1.40000881529186,103.913071526722,103.913071526722,Horizon Primary School
0,PIONEER PRIMARY SCHOOL,23,JURONG WEST STREET 81,PIONEER PRIMARY SCHOOL,23 JURONG WEST STREET 81 PIONEER PRIMARY SCHOOL SINGAPORE 649076,649076,12591.9641520744,36760.6619676985,1.34872092746566,103.694867873154,103.694867873154,Pioneer Primary School
0,THE LEARNING HARBOUR @ ADMIRALTY PRIMARY SCHOOL,11,WOODLANDS CIRCLE,THE LEARNING HARBOUR @ ADMIRALTY PRIMARY SCHOOL,11 WOODLANDS CIRCLE THE LEARNING HARBOUR @ ADMIRALTY PRIMARY SCHOOL SINGAPORE 738907,738907,24315.9398124339,47135.3542042952,1.44254963931583,103.800213682734,103.800213682734,Admiralty Primary School
1,ADMIRALTY PRIMARY SCHOOL,11,WOODLANDS CIRCLE,ADMIRALTY PRIMARY SCHOOL,11 WOODLANDS CIRCLE ADMIRALTY PRIMARY SCHOOL SINGAPORE 738907,738907,24304.8860053159,47149.7266234159,1.44267961678131,103.800114351557,103.800114351557,Admiralty Primary School
0,NGEE ANN PRIMARY SCHOOL,344,MARINE TERRACE,NGEE ANN PRIMARY SCHOOL,344 MARINE TERRACE NGEE ANN PRIMARY SCHOOL SINGAPORE 449149,449149,37397.0469912495,31985.6727849524,1.30554015271643,103.917755430065,103.917755430065,Ngee Ann Primary School
0,DE LA SALLE SCHOOL,11,CHOA CHU KANG STREET 52,DE LA SALLE SCHOOL,11 CHOA CHU KANG STREET 52 DE LA SALLE SCHOOL SINGAPORE 689285,689285,17998.1096549891,41885.6712643355,1.39507191622878,103.743443644259,103.743443644259,De La Salle School
0,DE LA SALLE SCHOOL,11,CHOA CHU KANG STREET 52,DE LA SALLE SCHOOL,11 CHOA CHU KANG STREET 52 DE LA SALLE SCHOOL SINGAPORE 689285,689285,17998.1096549891,41885.6712643355,1.39507191622878,103.743443644259,103.743443644259,Methodist Girls' School (Primary)
0,RULANG PRIMARY SCHOOL,6,JURONG WEST STREET 52,RULANG PRIMARY SCHOOL,6 JURONG WEST STREET 52 RULANG PRIMARY SCHOOL SINGAPORE 649295,649295,15278.691163213,36553.0314388052,1.34684445616169,103.719009824408,103.719009824408,Rulang Primary School
0,WEST VIEW PRIMARY SCHOOL,31,SENJA ROAD,WEST VIEW PRIMARY SCHOOL,31 SENJA ROAD WEST VIEW PRIMARY SCHOOL SINGAPORE 677742,677742,19872.748479072,40616.0567150712,1.38359057382601,103.760289106472,103.760289106472,West View Primary School
1,BIG HEART STUDENT CARE (WEST VIEW PRIMARY SCHOOL),31,SENJA ROAD,BIG HEART STUDENT CARE (WEST VIEW PRIMARY SCHOOL),31 SENJA ROAD BIG HEART STUDENT CARE (WEST VIEW PRIMARY SCHOOL) SINGAPORE 677742,677742,19871.0048010657,40637.6069141179,1.38378546546229,103.760273432258,103.760273432258,West View Primary School
0,YUHUA PRIMARY SCHOOL,158,JURONG EAST STREET 24,YUHUA PRIMARY SCHOOL,158 JURONG EAST STREET 24 YUHUA PRIMARY SCHOOL SINGAPORE 609558,609558,17710.4889872195,36118.961250579,1.34291981758865,103.740861144256,103.740861144256,Yuhua Primary School
0,ALEXANDRA PRIMARY SCHOOL,2A,PRINCE CHARLES CRESCENT,ALEXANDRA PRIMARY SCHOOL,2A PRINCE CHARLES CRESCENT ALEXANDRA PRIMARY SCHOOL SINGAPORE 159016,159016,26956.3330178494,30410.8076175861,1.29129903505281,103.823940793685,103.823940793685,Alexandra Primary School
0,RIVERVALE PRIMARY SCHOOL,80,RIVERVALE DRIVE,RIVERVALE PRIMARY SCHOOL,80 RIVERVALE DRIVE RIVERVALE PRIMARY SCHOOL SINGAPORE 545092,545092,35945.8458180744,41719.9470313098,1.39357380506775,103.904718284557,103.904718284557,Rivervale Primary School
0,HOLY INNOCENTS' PRIMARY SCHOOL,5,LORONG LOW KOON,HOLY INNOCENTS' PRIMARY SCHOOL,5 LORONG LOW KOON HOLY INNOCENTS' PRIMARY SCHOOL SINGAPORE 536451,536451,34717.9667321779,38752.5265134238,1.3667378414426,103.893684148327,103.893684148327,Holy Innocents' Primary School
0,HOUGANG PRIMARY SCHOOL,1,HOUGANG STREET 93,HOUGANG PRIMARY SCHOOL,1 HOUGANG STREET 93 HOUGANG PRIMARY SCHOOL SINGAPORE 534238,534238,33324.8487603758,40002.215406863,1.3780398609897,103.881166249315,103.881166249315,Hougang Primary School
0,CANOSSA CATHOLIC PRIMARY SCHOOL,1,SALLIM ROAD,CANOSSA CATHOLIC PRIMARY SCHOOL,1 SALLIM ROAD CANOSSA CATHOLIC PRIMARY SCHOOL SINGAPORE 387621,387621,33390.6987869078,34304.4229587168,1.32651105993099,103.88175693878,103.88175693878,Canossa Catholic Primary School
0,AHMAD IBRAHIM PRIMARY SCHOOL,10,YISHUN STREET 11,AHMAD IBRAHIM PRIMARY SCHOOL,10 YISHUN STREET 11 AHMAD IBRAHIM PRIMARY SCHOOL SINGAPORE 768643,768643,27956.1216285797,46154.7006799243,1.43368120674913,103.832924289687,103.832924289687,Ahmad Ibrahim Primary School
0,ZHENGHUA PRIMARY SCHOOL,9,FAJAR ROAD,ZHENGHUA PRIMARY SCHOOL,9 FAJAR ROAD ZHENGHUA PRIMARY SCHOOL SINGAPORE 679002,679002,20861.1568122124,40197.1465491671,1.37980236109135,103.76917079696,103.76917079696,Zhenghua Primary School
0,ZHENGHUA PRIMARY SCHOOL,9,FAJAR ROAD,ZHENGHUA PRIMARY SCHOOL,9 FAJAR ROAD ZHENGHUA PRIMARY SCHOOL SINGAPORE 679002,679002,20861.1568122124,40197.1465491671,1.37980236109135,103.76917079696,103.76917079696,CHIJ (Katong) Primary
0,WHEE!CANOPUS STUDENT CARE @ NORTHOAKS PRIMARY SCHOOL,61,SEMBAWANG DRIVE,WHEE!CANOPUS STUDENT CARE @ NORTHOAKS PRIMARY SCHOOL,61 SEMBAWANG DRIVE WHEE!CANOPUS STUDENT CARE @ NORTHOAKS PRIMARY SCHOOL SINGAPORE 757622,757622,25806.75720583,48696.3490983918,1.4566668656294,103.813610016949,103.813610016949,Northoaks Primary School
1,NORTHOAKS PRIMARY SCHOOL,61,SEMBAWANG DRIVE,NORTHOAKS PRIMARY SCHOOL,61 SEMBAWANG DRIVE NORTHOAKS PRIMARY SCHOOL SINGAPORE 757622,757622,25806.7564793983,48696.3499458954,1.45666687329388,103.813610010422,103.813610010422,Northoaks Primary School
2,MOE KINDERGARTEN @ NORTHOAKS PRIMARY SCHOOL,61,SEMBAWANG DRIVE,MOE KINDERGARTEN @ NORTHOAKS PRIMARY SCHOOL,61 SEMBAWANG DRIVE MOE KINDERGARTEN @ NORTHOAKS PRIMARY SCHOOL SINGAPORE 757622,757622,25819.2899974361,48698.1500131544,1.45668315343519,103.813722636936,103.813722636936,Northoaks Primary School
0,EPWORTH STUDENT CARE (ANGLO-CHINESE SCHOOL JUNIOR),16,WINSTEDT ROAD,EPWORTH STUDENT CARE (ANGLO-CHINESE SCHOOL JUNIOR),16 WINSTEDT ROAD EPWORTH STUDENT CARE (ANGLO-CHINESE SCHOOL JUNIOR) SINGAPORE 227988,227988,28916.3166898089,32403.7520947009,1.30932252730174,103.841552127373,103.841552127373,Anglo-Chinese School (Junior)
1,ANGLO-CHINESE SCHOOL (JUNIOR),16,WINSTEDT ROAD,ANGLO-CHINESE SCHOOL (JUNIOR),16 WINSTEDT ROAD ANGLO-CHINESE SCHOOL (JUNIOR) SINGAPORE 227988,227988,28801.2412965344,32403.6157071665,1.30932129705754,103.840518119364,103.840518119364,Anglo-Chinese School (Junior)
0,AI TONG SCHOOL,100,BRIGHT HILL DRIVE,AI TONG SCHOOL,100 BRIGHT HILL DRIVE AI TONG SCHOOL SINGAPORE 579646,579646,27972.9653680343,38088.8294471763,1.36073636488519,103.833075654586,103.833075654586,Ai Tong School
0,PEI HWA PRESBYTERIAN PRIMARY SCHOOL,7,PEI WAH AVENUE,PEI HWA PRESBYTERIAN PRIMARY SCHOOL,7 PEI WAH AVENUE PEI HWA PRESBYTERIAN PRIMARY SCHOOL SINGAPORE 597610,597610,21642.3594276104,35582.2457916811,1.33806704395876,103.776191458102,103.776191458102,Pei Hwa Presbyterian Primary School
0,PEIYING PRIMARY SCHOOL,651,YISHUN RING ROAD,PEIYING PRIMARY SCHOOL,651 YISHUN RING ROAD PEIYING PRIMARY SCHOOL SINGAPORE 768687,768687,27664.0163050024,44355.3129365072,1.41740819239645,103.830299468024,103.830299468024,Peiying Primary School
1,COMMIT LEARNING SCHOOLHOUSE @ PEIYING PRIMARY SCHOOL,651,YISHUN RING ROAD,COMMIT LEARNING SCHOOLHOUSE @ PEIYING PRIMARY SCHOOL,651 YISHUN RING ROAD COMMIT LEARNING SCHOOLHOUSE @ PEIYING PRIMARY SCHOOL SINGAPORE 768687,768687,27646.6270154091,44356.206750067,1.41741627551251,103.830143209875,103.830143209875,Peiying Primary School
0,SHG STUDENT CARE (BLANGAH RISE PRIMARY SCHOOL),91,TELOK BLANGAH HEIGHTS,SHG STUDENT CARE (BLANGAH RISE PRIMARY SCHOOL),91 TELOK BLANGAH HEIGHTS SHG STUDENT CARE (BLANGAH RISE PRIMARY SCHOOL) SINGAPORE 109100,109100,25252.1767959753,28732.4376898836,1.2761203442885,103.808628381578,103.808628381578,Blangah Rise Primary School
1,BLANGAH RISE PRIMARY SCHOOL,91,TELOK BLANGAH HEIGHTS,BLANGAH RISE PRIMARY SCHOOL,91 TELOK BLANGAH HEIGHTS BLANGAH RISE PRIMARY SCHOOL SINGAPORE 109100,109100,25253.3820670871,28733.5390207395,1.27613030444271,103.808639211285,103.808639211285,Blangah Rise Primary School
0,ELIAS PARK PRIMARY SCHOOL,11,PASIR RIS STREET 52,ELIAS PARK PRIMARY SCHOOL,11 PASIR RIS STREET 52 ELIAS PARK PRIMARY SCHOOL SINGAPORE 518866,518866,40468.5860739145,39669.9745552689,1.37503303189649,103.94535776821,103.94535776821,Elias Park Primary School
1,AFTERSCHOOL @ ELIAS PARK PRIMARY SCHOOL,11,PASIR RIS STREET 52,AFTERSCHOOL @ ELIAS PARK PRIMARY SCHOOL,11 PASIR RIS STREET 52 AFTERSCHOOL @ ELIAS PARK PRIMARY SCHOOL SINGAPORE 518866,518866,40460.9792755861,39672.6204007976,1.37505696315817,103.945289416873,103.945289416873,Elias Park Primary School
0,XINGHUA PRIMARY SCHOOL,45,HOUGANG AVENUE 1,XINGHUA PRIMARY SCHOOL,45 HOUGANG AVENUE 1 XINGHUA PRIMARY SCHOOL SINGAPORE 538882,538882,34332.06543699,37785.9488121998,1.35799654685784,103.890216354916,103.890216354916,Xinghua Primary School
0,PARK VIEW PRIMARY SCHOOL,60,PASIR RIS DRIVE 1,PARK VIEW PRIMARY SCHOOL,60 PASIR RIS DRIVE 1 PARK VIEW PRIMARY SCHOOL SINGAPORE 519524,519524,39837.6760745971,39972.6151045989,1.37777026097219,103.939688717311,103.939688717311,Park View Primary School
0,SEMBAWANG PRIMARY SCHOOL,10,SEMBAWANG DRIVE,SEMBAWANG PRIMARY SCHOOL,10 SEMBAWANG DRIVE SEMBAWANG PRIMARY SCHOOL SINGAPORE 757715,757715,26631.5285255667,47411.1056757346,1.44504364451206,103.821021505387,103.821021505387,Sembawang Primary School
0,TECK GHEE PRIMARY SCHOOL,1,ANG MO KIO STREET 32,TECK GHEE PRIMARY SCHOOL,1 ANG MO KIO STREET 32 TECK GHEE PRIMARY SCHOOL SINGAPORE 569299,569299,29971.3112273812,38582.4725058638,1.36520063113583,103.851032163057,103.851032163057,Teck Ghee Primary School
0,ANGLO-CHINESE SCHOOL (PRIMARY),50,BARKER ROAD,ANGLO-CHINESE SCHOOL (PRIMARY),50 BARKER ROAD ANGLO-CHINESE SCHOOL (PRIMARY) SINGAPORE 309918,309918,28225.5394941578,33442.7199770398,1.31871859882709,103.835345168025,103.835345168025,Anglo-Chinese School (Primary)
0,BIG HEART STUDENT CARE (BOON LAY GARDEN PRIMARY SCHOOL),20,BOON LAY DRIVE,BIG HEART STUDENT CARE (BOON LAY GARDEN PRIMARY SCHOOL),20 BOON LAY DRIVE BIG HEART STUDENT CARE (BOON LAY GARDEN PRIMARY SCHOOL) SINGAPORE 649930,649930,14594.0803428125,36110.2863859087,1.34284013791617,103.712858381937,103.712858381937,Boon Lay Garden Primary School
1,BOON LAY GARDEN PRIMARY SCHOOL,20,BOON LAY DRIVE,BOON LAY GARDEN PRIMARY SCHOOL,20 BOON LAY DRIVE BOON LAY GARDEN PRIMARY SCHOOL SINGAPORE 649930,649930,14606.3915122412,36111.0122121591,1.34284670750022,103.712969004665,103.712969004665,Boon Lay Garden Primary School
0,TEMASEK PRIMARY SCHOOL,501,BEDOK SOUTH AVENUE 3,TEMASEK PRIMARY SCHOOL,501 BEDOK SOUTH AVENUE 3 TEMASEK PRIMARY SCHOOL SINGAPORE 469300,469300,40506.4334331667,33332.1826928314,1.3177163894532,103.94569522928,103.94569522928,Temasek Primary School
0,LEARNING STUDIO EDUCARE @ CHANGKAT PRIMARY SCHOOL,11,SIMEI STREET 3,LEARNING STUDIO EDUCARE @ CHANGKAT PRIMARY SCHOOL,11 SIMEI STREET 3 LEARNING STUDIO EDUCARE @ CHANGKAT PRIMARY SCHOOL SINGAPORE 529896,529896,41238.4638929376,35793.2822557092,1.33997334692002,103.952273949753,103.952273949753,Changkat Primary School
1,CHANGKAT PRIMARY SCHOOL,11,SIMEI STREET 3,CHANGKAT PRIMARY SCHOOL,11 SIMEI STREET 3 CHANGKAT PRIMARY SCHOOL SINGAPORE 529896,529896,41228.3855623985,35819.2294544838,1.34020800809176,103.952183401477,103.952183401477,Changkat Primary School
0,PUNGGOL COVE PRIMARY SCHOOL,52,SUMANG WALK,PUNGGOL COVE PRIMARY SCHOOL,52 SUMANG WALK PUNGGOL COVE PRIMARY SCHOOL SINGAPORE 828674,828674,35306.1220845785,43709.1463599969,1.41156356476303,103.898970364961,103.898970364961,Punggol Cove Primary School
1,KNOWLEDGE PARK EDUCARE PTE LTD (PUNGGOL COVE PRIMARY SCHOOL),52,SUMANG WALK,KNOWLEDGE PARK EDUCARE PTE LTD (PUNGGOL COVE PRIMARY SCHOOL),52 SUMANG WALK KNOWLEDGE PARK EDUCARE PTE LTD (PUNGGOL COVE PRIMARY SCHOOL) SINGAPORE 828674,828674,35287.6778952163,43713.0547133945,1.41159891518084,103.898804629129,103.898804629129,Punggol Cove Primary School
0,WOODGROVE PRIMARY SCHOOL,2,WOODLANDS DRIVE 14,WOODGROVE PRIMARY SCHOOL,2 WOODLANDS DRIVE 14 WOODGROVE PRIMARY SCHOOL SINGAPORE 738079,738079,23222.6544896485,46085.8410775028,1.43305806041,103.790389620371,103.790389620371,Woodgrove Primary School
1,COMMIT LEARNING SCHOOLHOUSE @ WOODGROVE PRIMARY SCHOOL,2,WOODLANDS DRIVE 14,COMMIT LEARNING SCHOOLHOUSE @ WOODGROVE PRIMARY SCHOOL,2 WOODLANDS DRIVE 14 COMMIT LEARNING SCHOOLHOUSE @ WOODGROVE PRIMARY SCHOOL SINGAPORE 738079,738079,23204.9254116695,46050.2524968032,1.43273620725049,103.79023031392,103.79023031392,Woodgrove Primary School
0,FENGSHAN PRIMARY SCHOOL,307,BEDOK NORTH ROAD,FENGSHAN PRIMARY SCHOOL,307 BEDOK NORTH ROAD FENGSHAN PRIMARY SCHOOL SINGAPORE 469680,469680,38969.4734369004,34726.310162425,1.33032495471393,103.931885376418,103.931885376418,Fengshan Primary School
0,ENDEAVOUR PRIMARY SCHOOL,10,ADMIRALTY LINK,ENDEAVOUR PRIMARY SCHOOL,10 ADMIRALTY LINK ENDEAVOUR PRIMARY SCHOOL SINGAPORE 757521,757521,26231.5590347629,48420.9503094982,1.45417628963848,103.817427319321,103.817427319321,Endeavour Primary School
0,NANYANG PRIMARY SCHOOL,51,CORONATION ROAD,NANYANG PRIMARY SCHOOL,51 CORONATION ROAD NANYANG PRIMARY SCHOOL SINGAPORE 269460,269460,25011.8029676573,33707.7719583772,1.32111548993736,103.806468059795,103.806468059795,Nanyang Primary School
1,NANYANG PRIMARY SCHOOL,52,KING'S ROAD,NANYANG PRIMARY SCHOOL,52 KING'S ROAD NANYANG PRIMARY SCHOOL SINGAPORE 268097,268097,25159.4446834568,33722.2334864419,1.32124628894992,103.807794696706,103.807794696706,Nanyang Primary School
0,CANBERRA PRIMARY SCHOOL,21,ADMIRALTY DRIVE,CANBERRA PRIMARY SCHOOL,21 ADMIRALTY DRIVE CANBERRA PRIMARY SCHOOL SINGAPORE 757714,757714,26069.4764639316,48076.8108410928,1.45106400675587,103.815970864699,103.815970864699,Canberra Primary School
0,GONGSHANG PRIMARY SCHOOL,1,TAMPINES STREET 42,GONGSHANG PRIMARY SCHOOL,1 TAMPINES STREET 42 GONGSHANG PRIMARY SCHOOL SINGAPORE 529176,529176,40859.7631694684,37714.5769671295,1.35734898151234,103.9488719255,103.9488719255,Gongshang Primary School
1,COMMIT LEARNING SCHOOLHOUSE @ GONGSHANG PRIMARY SCHOOL,1,TAMPINES STREET 42,COMMIT LEARNING SCHOOLHOUSE @ GONGSHANG PRIMARY SCHOOL,1 TAMPINES STREET 42 COMMIT LEARNING SCHOOLHOUSE @ GONGSHANG PRIMARY SCHOOL SINGAPORE 529176,529176,40890.1319455709,37688.8239677399,1.35711606790292,103.949144797277,103.949144797277,Gongshang Primary School
0,QIHUA PRIMARY SCHOOL,5,WOODLANDS STREET 81,QIHUA PRIMARY SCHOOL,5 WOODLANDS STREET 81 QIHUA PRIMARY SCHOOL SINGAPORE 738525,738525,22994.5551459631,47078.5774599016,1.4420359661233,103.78833975717,103.78833975717,Qihua Primary School
1,POWERLIFE STUDENT SERVICES @ QIHUA PRIMARY SCHOOL,5,WOODLANDS STREET 81,POWERLIFE STUDENT SERVICES @ QIHUA PRIMARY SCHOOL,5 WOODLANDS STREET 81 POWERLIFE STUDENT SERVICES @ QIHUA PRIMARY SCHOOL SINGAPORE 738525,738525,22994.5556907868,47078.5773993656,1.44203596557592,103.788339762066,103.788339762066,Qihua Primary School
0,NORTHLAND PRIMARY SCHOOL,15,YISHUN AVENUE 4,NORTHLAND PRIMARY SCHOOL,15 YISHUN AVENUE 4 NORTHLAND PRIMARY SCHOOL SINGAPORE 769026,769026,28831.7852939954,44786.0977167096,1.42130404433541,103.840792917089,103.840792917089,Northland Primary School
0,MAYFLOWER PRIMARY SCHOOL (U/C),200,ANG MO KIO AVENUE 5,MAYFLOWER PRIMARY SCHOOL (U/C),200 ANG MO KIO AVENUE 5 MAYFLOWER PRIMARY SCHOOL (U/C) SINGAPORE 569878,569878,29095.8687301232,39820.6971280593,1.37639873747589,103.843165757219,103.843165757219,Mayflower Primary School
1,SHG STUDENT CARE (MAYFLOWER PRIMARY SCHOOL),200,ANG MO KIO AVENUE 5,SHG STUDENT CARE (MAYFLOWER PRIMARY SCHOOL),200 ANG MO KIO AVENUE 5 SHG STUDENT CARE (MAYFLOWER PRIMARY SCHOOL) SINGAPORE 569878,569878,29095.8686998552,39820.6966135036,1.37639873282243,103.843165756947,103.843165756947,Mayflower Primary School
2,MAYFLOWER PRIMARY SCHOOL (JAN 2019 - DEC 2021),6,ANG MO KIO AVENUE 2,MAYFLOWER PRIMARY SCHOOL (JAN 2019 - DEC 2021),6 ANG MO KIO AVENUE 2 MAYFLOWER PRIMARY SCHOOL (JAN 2019 - DEC 2021) SINGAPORE 569948,569948,28270.22336182,39784.1409707256,1.37606815582917,103.835746732105,103.835746732105,Mayflower Primary School
0,XINGNAN PRIMARY SCHOOL,5,JURONG WEST STREET 91,XINGNAN PRIMARY SCHOOL,5 JURONG WEST STREET 91 XINGNAN PRIMARY SCHOOL SINGAPORE 649036,649036,11796.8867232073,36093.27051243,1.34268487634267,103.68772398508,103.68772398508,Xingnan Primary School
1,SHG STUDENT CARE (XINGNAN PRIMARY SCHOOL),5,JURONG WEST STREET 91,SHG STUDENT CARE (XINGNAN PRIMARY SCHOOL),5 JURONG WEST STREET 91 SHG STUDENT CARE (XINGNAN PRIMARY SCHOOL) SINGAPORE 649036,649036,11796.8876917828,36093.2697859984,1.34268486977361,103.687723993784,103.687723993784,Xingnan Primary School
0,WOODLANDS RING PRIMARY SCHOOL,11,WOODLANDS RING ROAD,WOODLANDS RING PRIMARY SCHOOL,11 WOODLANDS RING ROAD WOODLANDS RING PRIMARY SCHOOL SINGAPORE 738240,738240,24051.8978131758,46275.0919483751,1.43476970480441,103.797841126811,103.797841126811,Woodlands Ring Primary School
0,ZHANGDE PRIMARY SCHOOL,51,JALAN MEMBINA,ZHANGDE PRIMARY SCHOOL,51 JALAN MEMBINA ZHANGDE PRIMARY SCHOOL SINGAPORE 169485,169485,27202.0828032922,29658.8077647537,1.28449821971479,103.826148977614,103.826148977614,Zhangde Primary School
0,WHEE!CANOPUS STUDENT CARE @ HUAMIN PRIMARY SCHOOL,21,YISHUN AVENUE 11,WHEE!CANOPUS STUDENT CARE @ HUAMIN PRIMARY SCHOOL,21 YISHUN AVENUE 11 WHEE!CANOPUS STUDENT CARE @ HUAMIN PRIMARY SCHOOL SINGAPORE 768857,768857,29212.0174563685,45411.3805951737,1.42695886300879,103.844209671353,103.844209671353,Huamin Primary School
1,HUAMIN PRIMARY SCHOOL,21,YISHUN AVENUE 11,HUAMIN PRIMARY SCHOOL,21 YISHUN AVENUE 11 HUAMIN PRIMARY SCHOOL SINGAPORE 768857,768857,29212.0174563685,45415.6800714564,1.42699774591713,103.844209671535,103.844209671535,Huamin Primary School
0,FERNVALE PRIMARY SCHOOL,1,FERNVALE LANE,FERNVALE PRIMARY SCHOOL,1 FERNVALE LANE FERNVALE PRIMARY SCHOOL SINGAPORE 797701,797701,32538.5492586633,41322.4155660588,1.38997940750514,103.874100976917,103.874100976917,Fernvale Primary School
0,ANGSANA PRIMARY SCHOOL,3,TAMPINES STREET 22,ANGSANA PRIMARY SCHOOL,3 TAMPINES STREET 22 ANGSANA PRIMARY SCHOOL SINGAPORE 529366,529366,41171.5415322781,36744.0134870075,1.34857143331006,103.951673027853,103.951673027853,Angsana Primary School
0,COMMIT LEARNING SCHOOLHOUSE @ CATHOLIC HIGH SCHOOL (PRIMARY),9,BISHAN STREET 22,COMMIT LEARNING SCHOOLHOUSE @ CATHOLIC HIGH SCHOOL (PRIMARY),9 BISHAN STREET 22 COMMIT LEARNING SCHOOLHOUSE @ CATHOLIC HIGH SCHOOL (PRIMARY) SINGAPORE 579767,579767,29212.1656484166,37386.9490167908,1.35438878373608,103.844210670766,103.844210670766,Catholic High School (Primary)
0,DAMAI PRIMARY SCHOOL,52,BEDOK RESERVOIR CRESCENT,DAMAI PRIMARY SCHOOL,52 BEDOK RESERVOIR CRESCENT DAMAI PRIMARY SCHOOL SINGAPORE 479226,479226,37787.8834206471,35282.0553448293,1.33535131498901,103.921268322538,103.921268322538,Damai Primary School
0,SHG STUDENT CARE (KHENG CHENG SCHOOL),15,LORONG 3 TOA PAYOH,SHG STUDENT CARE (KHENG CHENG SCHOOL),15 LORONG 3 TOA PAYOH SHG STUDENT CARE (KHENG CHENG SCHOOL) SINGAPORE 319580,319580,29538.3022649307,35496.0536824055,1.33728818369963,103.847141122849,103.847141122849,Kheng Cheng School
1,KHENG CHENG SCHOOL,15,LORONG 3 TOA PAYOH,KHENG CHENG SCHOOL,15 LORONG 3 TOA PAYOH KHENG CHENG SCHOOL SINGAPORE 319580,319580,29607.3024621364,35509.2624488901,1.33740763550641,103.847761130585,103.847761130585,Kheng Cheng School
0,KUO CHUAN PRESBYTERIAN PRIMARY SCHOOL (U/C),8,BISHAN STREET 13,KUO CHUAN PRESBYTERIAN PRIMARY SCHOOL (U/C),8 BISHAN STREET 13 KUO CHUAN PRESBYTERIAN PRIMARY SCHOOL (U/C) SINGAPORE 579793,579793,30351.4307323191,36803.7613669485,1.34911457448232,103.854447658027,103.854447658027,Kuo Chuan Presbyterian Primary School
1,KUO CHUAN PRESBYTERIAN PRIMARY SCHOOL,8B,BISHAN STREET 13,KUO CHUAN PRESBYTERIAN PRIMARY SCHOOL,8B BISHAN STREET 13 KUO CHUAN PRESBYTERIAN PRIMARY SCHOOL SINGAPORE 579802,579802,30360.5099772513,36877.6806866005,1.34978307376407,103.854529246517,103.854529246517,Kuo Chuan Presbyterian Primary School
2,KUO CHUAN PRESBYTERIAN PRIMARY SCHOOL,8,BISHAN STREET 13,KUO CHUAN PRESBYTERIAN PRIMARY SCHOOL,8 BISHAN STREET 13 KUO CHUAN PRESBYTERIAN PRIMARY SCHOOL SINGAPORE 579793,579793,30431.9025558895,36833.5931284856,1.34938435588389,103.855170750176,103.855170750176,Kuo Chuan Presbyterian Primary School
0,SHUQUN PRIMARY SCHOOL,8,JURONG WEST STREET 51,SHUQUN PRIMARY SCHOOL,8 JURONG WEST STREET 51 SHUQUN PRIMARY SCHOOL SINGAPORE 649332,649332,15562.2762007136,36633.0784209557,1.34756849017026,103.721557973446,103.721557973446,Shuqun Primary School
0,SPRINGDALE PRIMARY SCHOOL,71,ANCHORVALE LINK,SPRINGDALE PRIMARY SCHOOL,71 ANCHORVALE LINK SPRINGDALE PRIMARY SCHOOL SINGAPORE 544799,544799,34296.3725830866,41872.9799592979,1.3949581843253,103.889896502144,103.889896502144,Springdale Primary School
0,WEST SPRING PRIMARY SCHOOL,60,BUKIT PANJANG RING ROAD,WEST SPRING PRIMARY SCHOOL,60 BUKIT PANJANG RING ROAD WEST SPRING PRIMARY SCHOOL SINGAPORE 679946,679946,20516.9167935643,41265.394286627,1.38946311825015,103.766077275118,103.766077275118,West Spring Primary School
0,WEST GROVE PRIMARY SCHOOL,1,JURONG WEST STREET 72,WEST GROVE PRIMARY SCHOOL,1 JURONG WEST STREET 72 WEST GROVE PRIMARY SCHOOL SINGAPORE 649223,649223,13047.8170882678,36317.3619513214,1.34471212179467,103.698964204829,103.698964204829,West Grove Primary School
0,POI CHING SCHOOL,21,TAMPINES STREET 71,POI CHING SCHOOL,21 TAMPINES STREET 71 POI CHING SCHOOL SINGAPORE 529067,529067,39355.2032942288,37796.1158279311,1.35808700067905,103.935352521479,103.935352521479,Poi Ching School
0,YANGZHENG PRIMARY SCHOOL,15,SERANGOON AVENUE 3,YANGZHENG PRIMARY SCHOOL,15 SERANGOON AVENUE 3 YANGZHENG PRIMARY SCHOOL SINGAPORE 556108,556108,31900.0001953477,36788.0167487878,1.34897202423063,103.868362521917,103.868362521917,Yangzheng Primary School
0,CHIJ OUR LADY QUEEN OF PEACE,4,CHESTNUT DRIVE,CHIJ OUR LADY QUEEN OF PEACE,4 CHESTNUT DRIVE CHIJ OUR LADY QUEEN OF PEACE SINGAPORE 679287,679287,20696.859442208,38754.7725794241,1.36675801448842,103.767694820161,103.767694820161,CHIJ Our Lady Queen of Peace
0,NAN HUA PRIMARY SCHOOL,30,JALAN LEMPENG,NAN HUA PRIMARY SCHOOL,30 JALAN LEMPENG NAN HUA PRIMARY SCHOOL SINGAPORE 128806,128806,19996.6085189935,33566.4626377188,1.31983663784768,103.761403957527,103.761403957527,Nan Hua Primary School
0,WELLINGTON PRIMARY SCHOOL,10,WELLINGTON CIRCLE,WELLINGTON PRIMARY SCHOOL,10 WELLINGTON CIRCLE WELLINGTON PRIMARY SCHOOL SINGAPORE 757702,757702,26776.0994938826,48172.991596872,1.45193387060479,103.822320585589,103.822320585589,Wellington Primary School
0,SHG STUDENT CARE (FUCHUN PRIMARY SCHOOL),23,WOODLANDS AVENUE 1,SHG STUDENT CARE (FUCHUN PRIMARY SCHOOL),23 WOODLANDS AVENUE 1 SHG STUDENT CARE (FUCHUN PRIMARY SCHOOL) SINGAPORE 739063,739063,21863.36610494,45818.4663008247,1.43063975763573,103.778175192579,103.778175192579,Fuchun Primary School
1,FUCHUN PRIMARY SCHOOL,23,WOODLANDS AVENUE 1,FUCHUN PRIMARY SCHOOL,23 WOODLANDS AVENUE 1 FUCHUN PRIMARY SCHOOL SINGAPORE 739063,739063,21863.36610494,45818.4674207401,1.43063976776382,103.778175192579,103.778175192579,Fuchun Primary School
0,ANCHOR GREEN PRIMARY SCHOOL,31,ANCHORVALE DRIVE,ANCHOR GREEN PRIMARY SCHOOL,31 ANCHORVALE DRIVE ANCHOR GREEN PRIMARY SCHOOL SINGAPORE 544969,544969,34002.5394721953,41397.9754104279,1.39066247794443,103.887256080733,103.887256080733,Anchor Green Primary School
0,MARIS STELLA HIGH SCHOOL,80,BARTLEY ROAD,MARIS STELLA HIGH SCHOOL,80 BARTLEY ROAD MARIS STELLA HIGH SCHOOL SINGAPORE 539786,539786,32983.2916958053,36037.4445459433,1.34218395739982,103.87809644863,103.87809644863,Maris Stella High School
1,MARIS STELLA HIGH SCHOOL,25,MOUNT VERNON ROAD,MARIS STELLA HIGH SCHOOL,25 MOUNT VERNON ROAD MARIS STELLA HIGH SCHOOL SINGAPORE 368051,368051,32951.8677777899,35939.9784905035,1.34130251444855,103.877814069985,103.877814069985,Maris Stella High School
0,YUMIN PRIMARY SCHOOL,3,TAMPINES STREET 21,YUMIN PRIMARY SCHOOL,3 TAMPINES STREET 21 YUMIN PRIMARY SCHOOL SINGAPORE 529393,529393,41065.0329772383,37063.3680774812,1.35145960318228,103.950716122461,103.950716122461,Yumin Primary School
1,SHG STUDENT CARE (YUMIN PRIMARY SCHOOL),3,TAMPINES STREET 21,SHG STUDENT CARE (YUMIN PRIMARY SCHOOL),3 TAMPINES STREET 21 SHG STUDENT CARE (YUMIN PRIMARY SCHOOL) SINGAPORE 529393,529393,41036.7457001079,37044.8091119248,1.35129177520071,103.950461935791,103.950461935791,Yumin Primary School
0,XISHAN PRIMARY SCHOOL,8,YISHUN STREET 21,XISHAN PRIMARY SCHOOL,8 YISHUN STREET 21 XISHAN PRIMARY SCHOOL SINGAPORE 768611,768611,28553.1673536943,46134.8252386842,1.43350145509511,103.838289310553,103.838289310553,Xishan Primary School
0,BEACON PRIMARY SCHOOL,36,BUKIT PANJANG RING ROAD,BEACON PRIMARY SCHOOL,36 BUKIT PANJANG RING ROAD BEACON PRIMARY SCHOOL SINGAPORE 679944,679944,21371.2619916163,40687.4576779399,1.38423667692281,103.773754356751,103.773754356751,Beacon Primary School
0,RIVER VALLEY PRIMARY SCHOOL,2,RIVER VALLEY GREEN,RIVER VALLEY PRIMARY SCHOOL,2 RIVER VALLEY GREEN RIVER VALLEY PRIMARY SCHOOL SINGAPORE 237993,237993,28300.5257299673,30729.7523795608,1.29418347541731,103.836018932052,103.836018932052,River Valley Primary School
1,AFTERSCHOOL @ RIVER VALLEY PRIMARY SCHOOL,2,RIVER VALLEY GREEN,AFTERSCHOOL @ RIVER VALLEY PRIMARY SCHOOL,2 RIVER VALLEY GREEN AFTERSCHOOL @ RIVER VALLEY PRIMARY SCHOOL SINGAPORE 237993,237993,28300.5267893467,30729.7527125087,1.29418347842837,103.836018941571,103.836018941571,River Valley Primary School
0,YEW TEE PRIMARY SCHOOL,10,CHOA CHU KANG STREET 64,YEW TEE PRIMARY SCHOOL,10 CHOA CHU KANG STREET 64 YEW TEE PRIMARY SCHOOL SINGAPORE 689100,689100,18860.696855275,42094.5685688816,1.39696139159331,103.751194604689,103.751194604689,Yew Tee Primary School
0,WATERWAY PRIMARY SCHOOL,70,PUNGGOL DRIVE,WATERWAY PRIMARY SCHOOL,70 PUNGGOL DRIVE WATERWAY PRIMARY SCHOOL SINGAPORE 828802,828802,37498.5514918817,42337.0522875413,1.39915421007324,103.918670764176,103.918670764176,Waterway Primary School
0,TECK WHYE PRIMARY SCHOOL,11,TECK WHYE WALK,TECK WHYE PRIMARY SCHOOL,11 TECK WHYE WALK TECK WHYE PRIMARY SCHOOL SINGAPORE 688261,688261,19137.5511709685,40612.5120314974,1.38355830308364,103.753682810457,103.753682810457,Teck Whye Primary School
1,SHG STUDENT CARE (TECK WHYE PRIMARY SCHOOL),11,TECK WHYE WALK,SHG STUDENT CARE (TECK WHYE PRIMARY SCHOOL),11 TECK WHYE WALK SHG STUDENT CARE (TECK WHYE PRIMARY SCHOOL) SINGAPORE 688261,688261,19164.4558974076,40648.8130902648,1.38388660469396,103.753924558586,103.753924558586,Teck Whye Primary School
0,WHEE!CANOPUS STUDENT CARE @ EDGEFIELD PRIMARY SCHOOL,41,EDGEFIELD PLAINS,WHEE!CANOPUS STUDENT CARE @ EDGEFIELD PRIMARY SCHOOL,41 EDGEFIELD PLAINS WHEE!CANOPUS STUDENT CARE @ EDGEFIELD PRIMARY SCHOOL SINGAPORE 828869,828869,36247.6589920688,42463.4656134974,1.40029783011552,103.907430523653,103.907430523653,Edgefield Primary School
1,EDGEFIELD PRIMARY SCHOOL,41,EDGEFIELD PLAINS,EDGEFIELD PRIMARY SCHOOL,41 EDGEFIELD PLAINS EDGEFIELD PRIMARY SCHOOL SINGAPORE 828869,828869,36247.6588104609,42463.4661280531,1.40029783476902,103.907430522021,103.907430522021,Edgefield Primary School
0,SENGKANG GREEN PRIMARY SCHOOL,15,FERNVALE ROAD,SENGKANG GREEN PRIMARY SCHOOL,15 FERNVALE ROAD SENGKANG GREEN PRIMARY SCHOOL SINGAPORE 797636,797636,32656.2684997795,41638.6447148044,1.39283925109066,103.875158826122,103.875158826122,Sengkang Green Primary School
0,XINMIN PRIMARY SCHOOL,9,HOUGANG AVENUE 8,XINMIN PRIMARY SCHOOL,9 HOUGANG AVENUE 8 XINMIN PRIMARY SCHOOL SINGAPORE 538784,538784,33533.2938309787,39269.645632159,1.37141472576199,103.883039143647,103.883039143647,Xinmin Primary School
0,BIG HEART STUDENT CARE (CEDAR PRIMARY SCHOOL),15,CEDAR AVENUE,BIG HEART STUDENT CARE (CEDAR PRIMARY SCHOOL),15 CEDAR AVENUE BIG HEART STUDENT CARE (CEDAR PRIMARY SCHOOL) SINGAPORE 349700,349700,32707.7091499828,35316.1469013225,1.33566084356264,103.87562006259,103.87562006259,Cedar Primary School
1,CEDAR PRIMARY SCHOOL,15,CEDAR AVENUE,CEDAR PRIMARY SCHOOL,15 CEDAR AVENUE CEDAR PRIMARY SCHOOL SINGAPORE 349700,349700,32693.3769267453,35313.9771106411,1.33564122297683,103.875491278982,103.875491278982,Cedar Primary School
0,GREENRIDGE PRIMARY SCHOOL,11,JELAPANG ROAD,GREENRIDGE PRIMARY SCHOOL,11 JELAPANG ROAD GREENRIDGE PRIMARY SCHOOL SINGAPORE 677744,677744,20710.2509365119,40868.494937947,1.38587375431128,103.767814630258,103.767814630258,Greenridge Primary School
0,NAN CHIAU PRIMARY SCHOOL,50,ANCHORVALE LINK,NAN CHIAU PRIMARY SCHOOL,50 ANCHORVALE LINK NAN CHIAU PRIMARY SCHOOL SINGAPORE 545080,545080,34410.8360485351,41553.0340837613,1.39206468503473,103.890924976943,103.890924976943,Nan Chiau Primary School
0,CORPORATION PRIMARY SCHOOL,31,JURONG WEST STREET 24,CORPORATION PRIMARY SCHOOL,31 JURONG WEST STREET 24 CORPORATION PRIMARY SCHOOL SINGAPORE 648347,648347,14006.523479254,37066.2771939319,1.35148549046355,103.7075783976,103.7075783976,Corporation Primary School
0,CORPORATION PRIMARY SCHOOL,31,JURONG WEST STREET 24,CORPORATION PRIMARY SCHOOL,31 JURONG WEST STREET 24 CORPORATION PRIMARY SCHOOL SINGAPORE 648347,648347,14006.523479254,37066.2771939319,1.35148549046355,103.7075783976,103.7075783976,Paya Lebar Methodist Girls' School (Primary)
0,LIANHUA PRIMARY SCHOOL,2,BUKIT BATOK STREET 52,LIANHUA PRIMARY SCHOOL,2 BUKIT BATOK STREET 52 LIANHUA PRIMARY SCHOOL SINGAPORE 659243,659243,19196.1551632704,37361.2469886839,1.35415506887673,103.754210374853,103.754210374853,Lianhua Primary School
0,SHG STUDENT CARE (BENDEMEER PRIMARY SCHOOL),91,BENDEMEER ROAD,SHG STUDENT CARE (BENDEMEER PRIMARY SCHOOL),91 BENDEMEER ROAD SHG STUDENT CARE (BENDEMEER PRIMARY SCHOOL) SINGAPORE 339948,339948,31564.9272895884,33828.6365878265,1.32220848530291,103.865351336085,103.865351336085,Bendemeer Primary School
1,BENDEMEER PRIMARY SCHOOL,91,BENDEMEER ROAD,BENDEMEER PRIMARY SCHOOL,91 BENDEMEER ROAD BENDEMEER PRIMARY SCHOOL SINGAPORE 339948,339948,31564.9265934248,33828.6354679111,1.32220847517488,103.86535132983,103.86535132983,Bendemeer Primary School
0,TELOK KURAU PRIMARY SCHOOL,50,BEDOK RESERVOIR ROAD,TELOK KURAU PRIMARY SCHOOL,50 BEDOK RESERVOIR ROAD TELOK KURAU PRIMARY SCHOOL SINGAPORE 479239,479239,36683.9973116564,34791.3036352862,1.33091347150609,103.91134913991,103.91134913991,Telok Kurau Primary School
0,KONG HWA SCHOOL,350,GUILLEMARD ROAD,KONG HWA SCHOOL,350 GUILLEMARD ROAD KONG HWA SCHOOL SINGAPORE 399772,399772,34108.831459811,32601.9335947055,1.31111421924857,103.888209412231,103.888209412231,Kong Hwa School
0,BUKIT VIEW PRIMARY SCHOOL,18,BUKIT BATOK STREET 21,BUKIT VIEW PRIMARY SCHOOL,18 BUKIT BATOK STREET 21 BUKIT VIEW PRIMARY SCHOOL SINGAPORE 659634,659634,19126.956105412,36453.4481076375,1.34594524614786,103.753588844734,103.753588844734,Bukit View Primary School
0,LEARNING STUDIO EDUCARE BY ZENITANT (MONTFORT JUNIOR SCHOOL),52,HOUGANG AVENUE 8,LEARNING STUDIO EDUCARE BY ZENITANT (MONTFORT JUNIOR SCHOOL),52 HOUGANG AVENUE 8 LEARNING STUDIO EDUCARE BY ZENITANT (MONTFORT JUNIOR SCHOOL) SINGAPORE 538786,538786,34279.1743147392,39514.0026060622,1.37362445234082,103.889741457901,103.889741457901,Montfort Junior School
1,MONTFORT JUNIOR SCHOOL,52,HOUGANG AVENUE 8,MONTFORT JUNIOR SCHOOL,52 HOUGANG AVENUE 8 MONTFORT JUNIOR SCHOOL SINGAPORE 538786,538786,34273.5367514314,39548.6330234688,1.37393763850817,103.889690807711,103.889690807711,Montfort Junior School
0,EVERGREEN PRIMARY SCHOOL,31,WOODLANDS CIRCLE,EVERGREEN PRIMARY SCHOOL,31 WOODLANDS CIRCLE EVERGREEN PRIMARY SCHOOL SINGAPORE 738908,738908,23685.1388989305,47312.1426566243,1.44414835944296,103.794545291298,103.794545291298,Evergreen Primary School
0,TAO NAN SCHOOL,49,MARINE CRESCENT,TAO NAN SCHOOL,49 MARINE CRESCENT TAO NAN SCHOOL SINGAPORE 449761,449761,36667.961394419,31885.1782361325,1.30463152903461,103.911204232146,103.911204232146,Tao Nan School
1,FORMER TAO NAN SCHOOL,39,ARMENIAN STREET,FORMER TAO NAN SCHOOL,39 ARMENIAN STREET FORMER TAO NAN SCHOOL SINGAPORE 179941,179941,29748.116507777,30746.1923441123,1.29433210524929,103.849026157822,103.849026157822,Tao Nan School
0,SHG STUDENT CARE (CHONGFU SCHOOL),170,YISHUN AVENUE 6,SHG STUDENT CARE (CHONGFU SCHOOL),170 YISHUN AVENUE 6 SHG STUDENT CARE (CHONGFU SCHOOL) SINGAPORE 768959,768959,28640.1243954552,46683.3712114282,1.43846230429528,103.839070714229,103.839070714229,Chongfu School
1,CHONGFU SCHOOL,170,YISHUN AVENUE 6,CHONGFU SCHOOL,170 YISHUN AVENUE 6 CHONGFU SCHOOL SINGAPORE 768959,768959,28640.1236690236,46683.3720286638,1.43846231168609,103.839070707702,103.839070707702,Chongfu School
0,VALOUR PRIMARY SCHOOL,49,PUNGGOL CENTRAL,VALOUR PRIMARY SCHOOL,49 PUNGGOL CENTRAL VALOUR PRIMARY SCHOOL SINGAPORE 828728,828728,35299.5191239305,43190.3049324527,1.40687135453389,103.898910900479,103.898910900479,Valour Primary School
0,BIG HEART STUDENT CARE (CONCORD PRIMARY SCHOOL),3,CHOA CHU KANG AVENUE 4,BIG HEART STUDENT CARE (CONCORD PRIMARY SCHOOL),3 CHOA CHU KANG AVENUE 4 BIG HEART STUDENT CARE (CONCORD PRIMARY SCHOOL) SINGAPORE 689814,689814,17231.3486815896,40248.4434567168,1.38026516111464,103.736554295636,103.736554295636,Concord Primary School
1,CONCORD PRIMARY SCHOOL,3,CHOA CHU KANG AVENUE 4,CONCORD PRIMARY SCHOOL,3 CHOA CHU KANG AVENUE 4 CONCORD PRIMARY SCHOOL SINGAPORE 689814,689814,17185.5541605325,40264.628141094,1.38041151250887,103.736142792506,103.736142792506,Concord Primary School
0,JING SHAN PRIMARY SCHOOL,5,ANG MO KIO STREET 52,JING SHAN PRIMARY SCHOOL,5 ANG MO KIO STREET 52 JING SHAN PRIMARY SCHOOL SINGAPORE 569228,569228,30057.9887140449,39322.4454056341,1.37189267560203,103.851811070946,103.851811070946,Jing Shan Primary School
0,PALM VIEW PRIMARY SCHOOL,150,COMPASSVALE BOW,PALM VIEW PRIMARY SCHOOL,150 COMPASSVALE BOW PALM VIEW PRIMARY SCHOOL SINGAPORE 544822,544822,34443.1457893625,40643.6749486886,1.38384076410294,103.891215105298,103.891215105298,Palm View Primary School
0,WESTWOOD PRIMARY SCHOOL,1,JURONG WEST STREET 73,WESTWOOD PRIMARY SCHOOL,1 JURONG WEST STREET 73 WESTWOOD PRIMARY SCHOOL SINGAPORE 649188,649188,13221.7226059502,36587.4334237389,1.34715463167376,103.700526715746,103.700526715746,Westwood Primary School
0,TOWNSVILLE PRIMARY SCHOOL,3,ANG MO KIO AVENUE 10,TOWNSVILLE PRIMARY SCHOOL,3 ANG MO KIO AVENUE 10 TOWNSVILLE PRIMARY SCHOOL SINGAPORE 569730,569730,30322.2471596543,38047.5142547619,1.36036263436069,103.854185521507,103.854185521507,Townsville Primary School
0,SOUTH VIEW PRIMARY SCHOOL,6,CHOA CHU KANG CENTRAL,SOUTH VIEW PRIMARY SCHOOL,6 CHOA CHU KANG CENTRAL SOUTH VIEW PRIMARY SCHOOL SINGAPORE 689762,689762,18426.0809050333,40414.4329886176,1.3817667245464,103.747289784172,103.747289784172,South View Primary School
0,COMMIT LEARNING SCHOOLHOUSE @ CHIJ OUR LADY OF THE NATIVITY,1257,UPPER SERANGOON ROAD,COMMIT LEARNING SCHOOLHOUSE @ CHIJ OUR LADY OF THE NATIVITY,1257 UPPER SERANGOON ROAD COMMIT LEARNING SCHOOLHOUSE @ CHIJ OUR LADY OF THE NATIVITY SINGAPORE 534793,534793,35172.5371230971,39508.4571482297,1.37357409699145,103.897768958127,103.897768958127,CHIJ Our Lady of the Nativity
1,CHIJ OUR LADY OF THE NATIVITY,1257,UPPER SERANGOON ROAD,CHIJ OUR LADY OF THE NATIVITY,1257 UPPER SERANGOON ROAD CHIJ OUR LADY OF THE NATIVITY SINGAPORE 534793,534793,35160.3441198757,39464.2179475166,1.37317401669511,103.897659384616,103.897659384616,CHIJ Our Lady of the Nativity
0,EUNOS PRIMARY SCHOOL,95,JALAN EUNOS,EUNOS PRIMARY SCHOOL,95 JALAN EUNOS EUNOS PRIMARY SCHOOL SINGAPORE 419529,419529,35907.8440921055,34069.7660563588,1.32438835817339,103.904374787716,103.904374787716,Eunos Primary School
0,WHEE!CANOPUS STUDENT CARE @ JUNYUAN PRIMARY SCHOOL,2,TAMPINES STREET 91,WHEE!CANOPUS STUDENT CARE @ JUNYUAN PRIMARY SCHOOL,2 TAMPINES STREET 91 WHEE!CANOPUS STUDENT CARE @ JUNYUAN PRIMARY SCHOOL SINGAPORE 528906,528906,39785.7303122813,36666.4453921858,1.3478705133992,103.939220641557,103.939220641557,Junyuan Primary School
1,JUNYUAN PRIMARY SCHOOL,2,TAMPINES STREET 91,JUNYUAN PRIMARY SCHOOL,2 TAMPINES STREET 91 JUNYUAN PRIMARY SCHOOL SINGAPORE 528906,528906,39833.1636025133,36668.7729698662,1.34789154446229,103.939646859373,103.939646859373,Junyuan Primary School
0,RAFFLES GIRLS' PRIMARY SCHOOL,21,HILLCREST ROAD,RAFFLES GIRLS' PRIMARY SCHOOL,21 HILLCREST ROAD RAFFLES GIRLS' PRIMARY SCHOOL SINGAPORE 289072,289072,24984.3558086818,34698.3495071065,1.33007391908583,103.806221335243,103.806221335243,Raffles Girls' Primary School
0,MEE TOH SCHOOL,21,EDGEDALE PLAINS,MEE TOH SCHOOL,21 EDGEDALE PLAINS MEE TOH SCHOOL SINGAPORE 828867,828867,36374.7728099721,41861.4696504511,1.3948535630087,103.908572571105,103.908572571105,Mee Toh School
0,PASIR RIS PRIMARY SCHOOL,5,PASIR RIS STREET 21,PASIR RIS PRIMARY SCHOOL,5 PASIR RIS STREET 21 PASIR RIS PRIMARY SCHOOL SINGAPORE 518968,518968,42422.9405970657,39368.8209206387,1.37230861882846,103.962918870593,103.962918870593,Pasir Ris Primary School
0,PASIR RIS PRIMARY SCHOOL,5,PASIR RIS STREET 21,PASIR RIS PRIMARY SCHOOL,5 PASIR RIS STREET 21 PASIR RIS PRIMARY SCHOOL SINGAPORE 518968,518968,42422.9405970657,39368.8209206387,1.37230861882846,103.962918870593,103.962918870593,CHIJ (Kellock)
0,GEYLANG METHODIST SCHOOL (PRIMARY),4,GEYLANG EAST CENTRAL,GEYLANG METHODIST SCHOOL (PRIMARY),4 GEYLANG EAST CENTRAL GEYLANG METHODIST SCHOOL (PRIMARY) SINGAPORE 389706,389706,33628.4396941271,33318.2863588259,1.317592749693,103.883892989147,103.883892989147,Geylang Methodist School (Primary)
0,ACE @ WORK SCHOOLCARE PTE LTD (PEI CHUN PUBLIC SCHOOL),16,LORONG 7 TOA PAYOH,ACE @ WORK SCHOOLCARE PTE LTD (PEI CHUN PUBLIC SCHOOL),16 LORONG 7 TOA PAYOH ACE @ WORK SCHOOLCARE PTE LTD (PEI CHUN PUBLIC SCHOOL) SINGAPORE 319320,319320,30450.8965329072,35439.718033338,1.33677864390672,103.855341310212,103.855341310212,Pei Chun Public School
1,PEI CHUN PUBLIC SCHOOL,16,LORONG 7 TOA PAYOH,PEI CHUN PUBLIC SCHOOL,16 LORONG 7 TOA PAYOH PEI CHUN PUBLIC SCHOOL SINGAPORE 319320,319320,30465.6070151376,35496.1433361731,1.33728893309896,103.855473497018,103.855473497018,Pei Chun Public School
0,JUYING PRIMARY SCHOOL,31,JURONG WEST STREET 91,JUYING PRIMARY SCHOOL,31 JURONG WEST STREET 91 JUYING PRIMARY SCHOOL SINGAPORE 649037,649037,11809.0041170046,35680.4453614391,1.33895145085326,103.687833087248,103.687833087248,Juying Primary School
0,HAIG GIRLS' SCHOOL (U/C),51,KOON SENG ROAD,HAIG GIRLS' SCHOOL (U/C),51 KOON SENG ROAD HAIG GIRLS' SCHOOL (U/C) SINGAPORE 427072,427072,35798.6867555426,32648.9584790319,1.3115391141431,103.903393592097,103.903393592097,Haig Girls' School
1,HAIG GIRLS' SCHOOL,51,KOON SENG ROAD,HAIG GIRLS' SCHOOL,51 KOON SENG ROAD HAIG GIRLS' SCHOOL SINGAPORE 427072,427072,35716.5426864084,32674.714020934,1.31177205868769,103.902655494254,103.902655494254,Haig Girls' School
0,AMP-MERCU STUDENT CARE CENTRE @ FUHUA PRIMARY SCHOOL,65,JURONG EAST STREET 13,AMP-MERCU STUDENT CARE CENTRE @ FUHUA PRIMARY SCHOOL,65 JURONG EAST STREET 13 AMP-MERCU STUDENT CARE CENTRE @ FUHUA PRIMARY SCHOOL SINGAPORE 609647,609647,17181.0139024388,35409.546513686,1.33650394598029,103.7361037501,103.7361037501,Fuhua Primary School
1,FUHUA PRIMARY SCHOOL,65,JURONG EAST STREET 13,FUHUA PRIMARY SCHOOL,65 JURONG EAST STREET 13 FUHUA PRIMARY SCHOOL SINGAPORE 609647,609647,17243.9704913357,35398.4662826173,1.33640376291346,103.736669454731,103.736669454731,Fuhua Primary School
0,UNITY PRIMARY SCHOOL,21,CHOA CHU KANG CRESCENT,UNITY PRIMARY SCHOOL,21 CHOA CHU KANG CRESCENT UNITY PRIMARY SCHOOL SINGAPORE 688268,688268,18393.1845404143,42742.7761458028,1.40282338968617,103.746993420009,103.746993420009,Unity Primary School
0,WOODLANDS RING PRIMARY SCHOOL,11,WOODLANDS RING ROAD,WOODLANDS RING PRIMARY SCHOOL,11 WOODLANDS RING ROAD WOODLANDS RING PRIMARY SCHOOL SINGAPORE 738240,738240,24051.8978131758,46275.0919483751,1.43476970480441,103.797841126811,103.797841126811,Woodlands Primary School
1,WOODLANDS PRIMARY SCHOOL,10,WOODLANDS DRIVE 50,WOODLANDS PRIMARY SCHOOL,10 WOODLANDS DRIVE 50 WOODLANDS PRIMARY SCHOOL SINGAPORE 738853,738853,23376.4658496417,46493.6745234244,1.43674638306535,103.791771693783,103.791771693783,Woodlands Primary School
2,COMMIT LEARNING SCHOOLHOUSE @ WOODLANDS PRIMARY SCHOOL,10,WOODLANDS DRIVE 50,COMMIT LEARNING SCHOOLHOUSE @ WOODLANDS PRIMARY SCHOOL,10 WOODLANDS DRIVE 50 COMMIT LEARNING SCHOOLHOUSE @ WOODLANDS PRIMARY SCHOOL SINGAPORE 738853,738853,23378.645416881,46475.5760247037,1.43658270720199,103.791791282236,103.791791282236,Woodlands Primary School
0,PUNGGOL GREEN PRIMARY SCHOOL,98,PUNGGOL WALK,PUNGGOL GREEN PRIMARY SCHOOL,98 PUNGGOL WALK PUNGGOL GREEN PRIMARY SCHOOL SINGAPORE 828772,828772,35284.1733469898,42630.078211844,1.40180487285084,103.898772864909,103.898772864909,Punggol Green Primary School
1,LEARNING LEAP PTE LTD (PUNGGOL GREEN PRIMARY SCHOOL),98,PUNGGOL WALK,LEARNING LEAP PTE LTD (PUNGGOL GREEN PRIMARY SCHOOL),98 PUNGGOL WALK LEARNING LEAP PTE LTD (PUNGGOL GREEN PRIMARY SCHOOL) SINGAPORE 828772,828772,35286.5548319491,42621.3463525623,1.40172590450527,103.898794262307,103.898794262307,Punggol Green Primary School
0,RADIN MAS PRIMARY SCHOOL,1,BUKIT PURMEI AVENUE,RADIN MAS PRIMARY SCHOOL,1 BUKIT PURMEI AVENUE RADIN MAS PRIMARY SCHOOL SINGAPORE 099840,099840,26972.6258194651,28607.4747451711,1.27499032586147,103.824087249895,103.824087249895,Radin Mas Primary School
0,OPERA ESTATE PRIMARY SCHOOL,48,FIDELIO STREET,OPERA ESTATE PRIMARY SCHOOL,48 FIDELIO STREET OPERA ESTATE PRIMARY SCHOOL SINGAPORE 458436,458436,38064.4265814684,33581.1386144478,1.31996875474462,103.923752660472,103.923752660472,Opera Estate Primary School
1,KNOWLEDGE PARK EDUCARE PTE LTE (OPERA ESTATE PRIMARY SCHOOL),48,FIDELIO STREET,KNOWLEDGE PARK EDUCARE PTE LTE (OPERA ESTATE PRIMARY SCHOOL),48 FIDELIO STREET KNOWLEDGE PARK EDUCARE PTE LTE (OPERA ESTATE PRIMARY SCHOOL) SINGAPORE 458436,458436,38064.4274895079,33581.1396132912,1.31996876377748,103.923752668632,103.923752668632,Opera Estate Primary School
0,YMCA STUDENT CARE CENTRE @ CHIJ PRIMARY (TOA PAYOH),628,LORONG 1 TOA PAYOH,YMCA STUDENT CARE CENTRE @ CHIJ PRIMARY (TOA PAYOH),628 LORONG 1 TOA PAYOH YMCA STUDENT CARE CENTRE @ CHIJ PRIMARY (TOA PAYOH) SINGAPORE 319765,319765,28949.1543042725,34994.5335020255,1.33275263726147,103.841847268953,103.841847268953,CHIJ Primary (Toa Payoh)
1,CHIJ PRIMARY (TOA PAYOH),628,LORONG 1 TOA PAYOH,CHIJ PRIMARY (TOA PAYOH),628 LORONG 1 TOA PAYOH CHIJ PRIMARY (TOA PAYOH) SINGAPORE 319765,319765,28957.0678080786,35001.7779017854,1.33281815279666,103.841918376501,103.841918376501,CHIJ Primary (Toa Payoh)
0,BEDOK GREEN PRIMARY SCHOOL,1,BEDOK SOUTH AVENUE 2,BEDOK GREEN PRIMARY SCHOOL,1 BEDOK SOUTH AVENUE 2 BEDOK GREEN PRIMARY SCHOOL SINGAPORE 469317,469317,39621.6222079797,34026.5430123936,1.32399627634455,103.937745022761,103.937745022761,Bedok Green Primary School
0,CHUA CHU KANG PRIMARY SCHOOL,20,CHOA CHU KANG AVENUE 2,CHUA CHU KANG PRIMARY SCHOOL,20 CHOA CHU KANG AVENUE 2 CHUA CHU KANG PRIMARY SCHOOL SINGAPORE 689905,689905,17821.8578842804,39969.5632746052,1.37774328310053,103.741860548432,103.741860548432,Chua Chu Kang Primary School
0,COMMIT LEARNING SCHOOLHOUSE @ FAIRFIELD METHODIST SCHOOL (PRIMARY),100,DOVER ROAD,COMMIT LEARNING SCHOOLHOUSE @ FAIRFIELD METHODIST SCHOOL (PRIMARY),100 DOVER ROAD COMMIT LEARNING SCHOOLHOUSE @ FAIRFIELD METHODIST SCHOOL (PRIMARY) SINGAPORE 139648,139648,22673.2819890725,31484.0275675338,1.30100441916733,103.785455606827,103.785455606827,Fairfield Methodist School (Primary)
1,FAIRFIELD METHODIST SCHOOL (PRIMARY),100,DOVER ROAD,FAIRFIELD METHODIST SCHOOL (PRIMARY),100 DOVER ROAD FAIRFIELD METHODIST SCHOOL (PRIMARY) SINGAPORE 139648,139648,22699.6137123108,31461.2786957938,1.30079869095826,103.785692213083,103.785692213083,Fairfield Methodist School (Primary)
0,JURONG WEST PRIMARY SCHOOL,30,JURONG WEST STREET 61,JURONG WEST PRIMARY SCHOOL,30 JURONG WEST STREET 61 JURONG WEST PRIMARY SCHOOL SINGAPORE 648368,648368,13040.1692768214,35712.6964731812,1.33924375323728,103.698895783329,103.698895783329,Jurong Primary School
1,JURONG PRIMARY SCHOOL,320,JURONG EAST STREET 32,JURONG PRIMARY SCHOOL,320 JURONG EAST STREET 32 JURONG PRIMARY SCHOOL SINGAPORE 609476,609476,16832.8477328196,36756.4272346329,1.34868451151935,103.732974782772,103.732974782772,Jurong Primary School
0,YISHUN PRIMARY SCHOOL,500,YISHUN RING ROAD,YISHUN PRIMARY SCHOOL,500 YISHUN RING ROAD YISHUN PRIMARY SCHOOL SINGAPORE 768679,768679,28078.8823050642,46134.2656139322,1.43349639934216,103.834027410567,103.834027410567,Yishun Primary School
0,JIEMIN PRIMARY SCHOOL,2,YISHUN STREET 71,JIEMIN PRIMARY SCHOOL,2 YISHUN STREET 71 JIEMIN PRIMARY SCHOOL SINGAPORE 768515,768515,27684.1484187441,45487.4522711467,1.4276468518322,103.830480360286,103.830480360286,Jiemin Primary School
0,GAN ENG SENG PRIMARY SCHOOL,100,REDHILL CLOSE,GAN ENG SENG PRIMARY SCHOOL,100 REDHILL CLOSE GAN ENG SENG PRIMARY SCHOOL SINGAPORE 158901,158901,25986.6928323014,29819.9405262545,1.28595539341476,103.815228207863,103.815228207863,Gan Eng Seng Primary School
0,YMCA STUDENT CARE CENTRE @ CHIJ OUR LADY OF GOOD COUNSEL,2C,BURGHLEY DRIVE,YMCA STUDENT CARE CENTRE @ CHIJ OUR LADY OF GOOD COUNSEL,2C BURGHLEY DRIVE YMCA STUDENT CARE CENTRE @ CHIJ OUR LADY OF GOOD COUNSEL SINGAPORE 558979,558979,31431.409129547,37785.7194716875,1.35799494859112,103.864152052213,103.864152052213,CHIJ Our Lady of Good Counsel
1,CHIJ OUR LADY OF GOOD COUNSEL,2C,BURGHLEY DRIVE,CHIJ OUR LADY OF GOOD COUNSEL,2C BURGHLEY DRIVE CHIJ OUR LADY OF GOOD COUNSEL SINGAPORE 558979,558979,31442.3277295809,37780.9071952235,1.3579514268227,103.86425016247,103.86425016247,CHIJ Our Lady of Good Counsel
0,MERIDIAN PRIMARY SCHOOL,20,PASIR RIS STREET 71,MERIDIAN PRIMARY SCHOOL,20 PASIR RIS STREET 71 MERIDIAN PRIMARY SCHOOL SINGAPORE 518798,518798,39331.8268461162,39773.6208789647,1.37597083104555,103.935143222264,103.935143222264,Meridian Primary School
0,HONG WEN SCHOOL,30,TOWNER ROAD,HONG WEN SCHOOL,30 TOWNER ROAD HONG WEN SCHOOL SINGAPORE 327829,327829,30708.0413969839,33771.2164066359,1.32168928544376,103.857651758668,103.857651758668,Hong Wen School
0,ANG MO KIO PRIMARY SCHOOL,20,ANG MO KIO AVENUE 3,ANG MO KIO PRIMARY SCHOOL,20 ANG MO KIO AVENUE 3 ANG MO KIO PRIMARY SCHOOL SINGAPORE 569920,569920,28636.8759446386,39012.7609516699,1.36909206497025,103.839041355537,103.839041355537,Ang Mo Kio Primary School
0,QUEENSTOWN PRIMARY SCHOOL,310,MARGARET DRIVE,QUEENSTOWN PRIMARY SCHOOL,310 MARGARET DRIVE QUEENSTOWN PRIMARY SCHOOL SINGAPORE 149303,149303,25171.3472956419,30929.3507541511,1.29598844588533,103.807901902313,103.807901902313,Queenstown Primary School
0,EAST SPRING PRIMARY SCHOOL,31,TAMPINES STREET 33,EAST SPRING PRIMARY SCHOOL,31 TAMPINES STREET 33 EAST SPRING PRIMARY SCHOOL SINGAPORE 529258,529258,42298.2196751516,37238.2988020405,1.35304104609341,103.961797146297,103.961797146297,East Spring Primary School
0,TAMPINES PRIMARY SCHOOL,250,TAMPINES STREET 12,TAMPINES PRIMARY SCHOOL,250 TAMPINES STREET 12 TAMPINES PRIMARY SCHOOL SINGAPORE 529426,529426,40270.0972025357,36955.7186010629,1.35048639822833,103.943573089534,103.943573089534,Tampines Primary School
1,AMP-MERCU STUDENT CARE CENTRE @ TAMPINES PRIMARY SCHOOL,250,TAMPINES STREET 12,AMP-MERCU STUDENT CARE CENTRE @ TAMPINES PRIMARY SCHOOL,250 TAMPINES STREET 12 AMP-MERCU STUDENT CARE CENTRE @ TAMPINES PRIMARY SCHOOL SINGAPORE 529426,529426,40270.0982013792,36955.7182075791,1.3504863946694,103.943573098509,103.943573098509,Tampines Primary School
2,TAMPINES NORTH PRIMARY SCHOOL,30,TAMPINES AVENUE 9,TAMPINES NORTH PRIMARY SCHOOL,30 TAMPINES AVENUE 9 TAMPINES NORTH PRIMARY SCHOOL SINGAPORE 529565,529565,40866.9650124414,38084.2010184471,1.36069171976908,103.948936797596,103.948936797596,Tampines Primary School
3,BIG HEART STUDENT CARE (TAMPINES NORTH PRIMARY SCHOOL),30,TAMPINES AVENUE 9,BIG HEART STUDENT CARE (TAMPINES NORTH PRIMARY SCHOOL),30 TAMPINES AVENUE 9 BIG HEART STUDENT CARE (TAMPINES NORTH PRIMARY SCHOOL) SINGAPORE 529565,529565,40848.2810703805,38061.6583322138,1.36048786025607,103.948768900518,103.948768900518,Tampines Primary School
0,PUNGGOL GREEN PRIMARY SCHOOL,98,PUNGGOL WALK,PUNGGOL GREEN PRIMARY SCHOOL,98 PUNGGOL WALK PUNGGOL GREEN PRIMARY SCHOOL SINGAPORE 828772,828772,35284.1733469898,42630.078211844,1.40180487285084,103.898772864909,103.898772864909,Punggol Primary School
1,PUNGGOL COVE PRIMARY SCHOOL,52,SUMANG WALK,PUNGGOL COVE PRIMARY SCHOOL,52 SUMANG WALK PUNGGOL COVE PRIMARY SCHOOL SINGAPORE 828674,828674,35306.1220845785,43709.1463599969,1.41156356476303,103.898970364961,103.898970364961,Punggol Primary School
2,LEARNING LEAP PTE LTD (PUNGGOL GREEN PRIMARY SCHOOL),98,PUNGGOL WALK,LEARNING LEAP PTE LTD (PUNGGOL GREEN PRIMARY SCHOOL),98 PUNGGOL WALK LEARNING LEAP PTE LTD (PUNGGOL GREEN PRIMARY SCHOOL) SINGAPORE 828772,828772,35286.5548319491,42621.3463525623,1.40172590450527,103.898794262307,103.898794262307,Punggol Primary School
3,KNOWLEDGE PARK EDUCARE PTE LTD (PUNGGOL COVE PRIMARY SCHOOL),52,SUMANG WALK,KNOWLEDGE PARK EDUCARE PTE LTD (PUNGGOL COVE PRIMARY SCHOOL),52 SUMANG WALK KNOWLEDGE PARK EDUCARE PTE LTD (PUNGGOL COVE PRIMARY SCHOOL) SINGAPORE 828674,828674,35287.6778952163,43713.0547133945,1.41159891518084,103.898804629129,103.898804629129,Punggol Primary School
4,PUNGGOL VIEW PRIMARY SCHOOL,9,PUNGGOL PLACE,PUNGGOL VIEW PRIMARY SCHOOL,9 PUNGGOL PLACE PUNGGOL VIEW PRIMARY SCHOOL SINGAPORE 828845,828845,36020.1741489889,43020.2572509032,1.40533331354236,103.905386541875,103.905386541875,Punggol Primary School
5,PUNGGOL PRIMARY SCHOOL,61,HOUGANG AVENUE 8,PUNGGOL PRIMARY SCHOOL,61 HOUGANG AVENUE 8 PUNGGOL PRIMARY SCHOOL SINGAPORE 538787,538787,34836.9228441808,40020.0263597388,1.37820062324156,103.89475334315,103.89475334315,Punggol Primary School
6,AFTERSCHOOL @ PUNGGOL PRIMARY SCHOOL,61,HOUGANG AVENUE 8,AFTERSCHOOL @ PUNGGOL PRIMARY SCHOOL,61 HOUGANG AVENUE 8 AFTERSCHOOL @ PUNGGOL PRIMARY SCHOOL SINGAPORE 538787,538787,34827.3316768408,40020.0263597388,1.37820062547639,103.894667159512,103.894667159512,Punggol Primary School
0,TANJONG KATONG PRIMARY SCHOOL,10,SERAYA ROAD,TANJONG KATONG PRIMARY SCHOOL,10 SERAYA ROAD TANJONG KATONG PRIMARY SCHOOL SINGAPORE 437259,437259,35480.2018247759,31959.8751402851,1.30530737066543,103.90053168483,103.90053168483,Tanjong Katong Primary School
0,NORTH VISTA PRIMARY SCHOOL,20,COMPASSVALE LINK,NORTH VISTA PRIMARY SCHOOL,20 COMPASSVALE LINK NORTH VISTA PRIMARY SCHOOL SINGAPORE 544974,544974,34959.4155884739,40538.932591036,1.38289339382802,103.895854152412,103.895854152412,North Vista Primary School
0,COMPASSVALE PRIMARY SCHOOL,21,COMPASSVALE STREET,COMPASSVALE PRIMARY SCHOOL,21 COMPASSVALE STREET COMPASSVALE PRIMARY SCHOOL SINGAPORE 545091,545091,35183.1364564393,41825.6376546267,1.39452983148325,103.897864767116,103.897864767116,Compassvale Primary School
0,SI LING PRIMARY SCHOOL,61,WOODLANDS AVENUE 1,SI LING PRIMARY SCHOOL,61 WOODLANDS AVENUE 1 SI LING PRIMARY SCHOOL SINGAPORE 739067,739067,22709.5353757655,46046.2438353077,1.43269986575791,103.785778769275,103.785778769275,Si Ling Primary School
0,STAMFORD PRIMARY SCHOOL,1,VICTORIA LANE,STAMFORD PRIMARY SCHOOL,1 VICTORIA LANE STAMFORD PRIMARY SCHOOL SINGAPORE 198423,198423,30679.2606003787,31825.2972375974,1.30409108329892,103.857392979824,103.857392979824,Stamford Primary School
0,QIFA PRIMARY SCHOOL,50,WEST COAST AVENUE,QIFA PRIMARY SCHOOL,50 WEST COAST AVENUE QIFA PRIMARY SCHOOL SINGAPORE 128104,128104,19509.8098383918,32768.6682335623,1.31262154226306,103.757030040839,103.757030040839,Qifa Primary School
1,AMP-MERCU STUDENT CARE CENTRE @ QIFA PRIMARY SCHOOL,50,WEST COAST AVENUE,AMP-MERCU STUDENT CARE CENTRE @ QIFA PRIMARY SCHOOL,50 WEST COAST AVENUE AMP-MERCU STUDENT CARE CENTRE @ QIFA PRIMARY SCHOOL SINGAPORE 128104,128104,19477.8913112544,32838.3244893141,1.31325147946859,103.75674321816,103.75674321816,Qifa Primary School
0,YIO CHU KANG PRIMARY SCHOOL,1,HOUGANG STREET 51,YIO CHU KANG PRIMARY SCHOOL,1 HOUGANG STREET 51 YIO CHU KANG PRIMARY SCHOOL SINGAPORE 538720,538720,33814.7888944717,39978.2141670305,1.37782270940137,103.885568714764,103.885568714764,Yio Chu Kang Primary School
0,RED SWASTIKA SCHOOL,350,BEDOK NORTH AVENUE 3,RED SWASTIKA SCHOOL,350 BEDOK NORTH AVENUE 3 RED SWASTIKA SCHOOL SINGAPORE 469719,469719,39246.5161102572,35076.7198858019,1.3334938298266,103.934374884855,103.934374884855,Red Swastika School
1,COMMIT LEARNING SCHOOLHOUSE @ RED SWASTIKA SCHOOL,350,BEDOK NORTH AVENUE 3,COMMIT LEARNING SCHOOLHOUSE @ RED SWASTIKA SCHOOL,350 BEDOK NORTH AVENUE 3 COMMIT LEARNING SCHOOLHOUSE @ RED SWASTIKA SCHOOL SINGAPORE 469719,469719,39240.1303829281,35138.9475005791,1.33405659580858,103.934317528484,103.934317528484,Red Swastika School
0,YMCA STUDENT CARE CENTRE @ OASIS PRIMARY SCHOOL,71,EDGEFIELD PLAINS,YMCA STUDENT CARE CENTRE @ OASIS PRIMARY SCHOOL,71 EDGEFIELD PLAINS YMCA STUDENT CARE CENTRE @ OASIS PRIMARY SCHOOL SINGAPORE 828716,828716,36644.4829129335,42918.0999909341,1.40440925998143,103.910996443708,103.910996443708,Oasis Primary School
1,OASIS PRIMARY SCHOOL,71,EDGEFIELD PLAINS,OASIS PRIMARY SCHOOL,71 EDGEFIELD PLAINS OASIS PRIMARY SCHOOL SINGAPORE 828716,828716,36644.481974626,42918.1010503136,1.40440926956235,103.910996435277,103.910996435277,Oasis Primary School
0,JURONG WEST PRIMARY SCHOOL,30,JURONG WEST STREET 61,JURONG WEST PRIMARY SCHOOL,30 JURONG WEST STREET 61 JURONG WEST PRIMARY SCHOOL SINGAPORE 648368,648368,13040.1692768214,35712.6964731812,1.33924375323728,103.698895783329,103.698895783329,Jurong West Primary School
0,BUKIT PANJANG PRIMARY SCHOOL,109,CASHEW ROAD,BUKIT PANJANG PRIMARY SCHOOL,109 CASHEW ROAD BUKIT PANJANG PRIMARY SCHOOL SINGAPORE 679676,679676,20877.4624474524,39497.187802799,1.37347219247534,103.76931748391,103.76931748391,Bukit Panjang Primary School
0,TRI-LOVE STUDENT CARE @ NORTH VIEW PRIMARY SCHOOL,210,YISHUN AVENUE 6,TRI-LOVE STUDENT CARE @ NORTH VIEW PRIMARY SCHOOL,210 YISHUN AVENUE 6 TRI-LOVE STUDENT CARE @ NORTH VIEW PRIMARY SCHOOL SINGAPORE 768960,768960,29655.0567140663,45473.7919063438,1.42752326591512,103.848190790589,103.848190790589,North View Primary School
1,NORTH VIEW PRIMARY SCHOOL,210,YISHUN AVENUE 6,NORTH VIEW PRIMARY SCHOOL,210 YISHUN AVENUE 6 NORTH VIEW PRIMARY SCHOOL SINGAPORE 768960,768960,29674.8092672927,45520.2486303486,1.4279434025525,103.848368288236,103.848368288236,North View Primary School
0,YU NENG PRIMARY SCHOOL,56,BEDOK NORTH STREET 3,YU NENG PRIMARY SCHOOL,56 BEDOK NORTH STREET 3 YU NENG PRIMARY SCHOOL SINGAPORE 469623,469623,38986.0037513841,35122.0427408684,1.33390380862116,103.93203405271,103.93203405271,Yu Neng Primary School
0,ZHONGHUA PRIMARY SCHOOL,12,SERANGOON AVENUE 4,ZHONGHUA PRIMARY SCHOOL,12 SERANGOON AVENUE 4 ZHONGHUA PRIMARY SCHOOL SINGAPORE 556095,556095,32048.3730342938,38025.8731912281,1.36016673529604,103.869695911447,103.869695911447,Zhonghua Primary School
1,LEARNING STUDIO BY ZENITANT (ZHONGHUA PRIMARY SCHOOL),12,SERANGOON AVENUE 4,LEARNING STUDIO BY ZENITANT (ZHONGHUA PRIMARY SCHOOL),12 SERANGOON AVENUE 4 LEARNING STUDIO BY ZENITANT (ZHONGHUA PRIMARY SCHOOL) SINGAPORE 556095,556095,32055.7771884715,38029.9160858132,1.36020329677667,103.869762443251,103.869762443251,Zhonghua Primary School
0,BUKIT TIMAH PRIMARY SCHOOL,111,LORONG KISMIS,BUKIT TIMAH PRIMARY SCHOOL,111 LORONG KISMIS BUKIT TIMAH PRIMARY SCHOOL SINGAPORE 598112,598112,20603.3469605334,35547.2001278065,1.33774986691199,103.766855335531,103.766855335531,Bukit Timah Primary School
1,AFTERSCHOOL @ BUKIT TIMAH PRIMARY SCHOOL,111,LORONG KISMIS,AFTERSCHOOL @ BUKIT TIMAH PRIMARY SCHOOL,111 LORONG KISMIS AFTERSCHOOL @ BUKIT TIMAH PRIMARY SCHOOL SINGAPORE 598112,598112,20603.3479896449,35547.1996132508,1.33774986225879,103.766855344779,103.766855344779,Bukit Timah Primary School
0,RIVERSIDE PRIMARY SCHOOL,110,WOODLANDS CRESCENT,RIVERSIDE PRIMARY SCHOOL,110 WOODLANDS CRESCENT RIVERSIDE PRIMARY SCHOOL SINGAPORE 737803,737803,24505.9680559319,47639.0550112929,1.44710495026316,103.801921210213,103.801921210213,Riverside Primary School
1,MERCU STUDENT CARE CENTRE @ RIVERSIDE PRIMARY SCHOOL,110,WOODLANDS CRESCENT,MERCU STUDENT CARE CENTRE @ RIVERSIDE PRIMARY SCHOOL,110 WOODLANDS CRESCENT MERCU STUDENT CARE CENTRE @ RIVERSIDE PRIMARY SCHOOL SINGAPORE 737803,737803,24496.0368883302,47632.6842968836,1.44704733459902,103.801831969553,103.801831969553,Riverside Primary School
0,HENRY PARK PRIMARY SCHOOL,1,HOLLAND GROVE ROAD,HENRY PARK PRIMARY SCHOOL,1 HOLLAND GROVE ROAD HENRY PARK PRIMARY SCHOOL SINGAPORE 278790,278790,22534.5021940814,33222.4214494564,1.31672581051651,103.78420830194,103.78420830194,Henry Park Primary School
0,SENG KANG PRIMARY SCHOOL,21,COMPASSVALE WALK,SENG KANG PRIMARY SCHOOL,21 COMPASSVALE WALK SENG KANG PRIMARY SCHOOL SINGAPORE 545166,545166,35368.2346204808,41241.87588167,1.38925045654185,103.899527873246,103.899527873246,Seng Kang Primary School
0,MARYMOUNT CONVENT SCHOOL,20,MARYMOUNT ROAD,MARYMOUNT CONVENT SCHOOL,20 MARYMOUNT ROAD MARYMOUNT CONVENT SCHOOL SINGAPORE 297754,297754,28732.325879951,35843.1271778122,1.34042702347099,103.839898962936,103.839898962936,Marymount Convent School
0,CANTONMENT PRIMARY SCHOOL,1,CANTONMENT CLOSE,CANTONMENT PRIMARY SCHOOL,1 CANTONMENT CLOSE CANTONMENT PRIMARY SCHOOL SINGAPORE 088256,088256,28734.9892809102,28664.4326434471,1.27550544136483,103.839922725842,103.839922725842,Cantonment Primary School
0,FIRST TOA PAYOH PRIMARY SCHOOL,7,LORONG 8 TOA PAYOH,FIRST TOA PAYOH PRIMARY SCHOOL,7 LORONG 8 TOA PAYOH FIRST TOA PAYOH PRIMARY SCHOOL SINGAPORE 319252,319252,30487.1980759632,35854.1000786088,1.34052616485414,103.855667534587,103.855667534587,First Toa Payoh Primary School
0,MARSILING PRIMARY SCHOOL,31,WOODLANDS CENTRE ROAD,MARSILING PRIMARY SCHOOL,31 WOODLANDS CENTRE ROAD MARSILING PRIMARY SCHOOL SINGAPORE 738927,738927,21365.1012462107,46236.823803613,1.4344231166861,103.773697721298,103.773697721298,Marsiling Primary School
0,KEMING PRIMARY SCHOOL,90,BUKIT BATOK EAST AVENUE 6,KEMING PRIMARY SCHOOL,90 BUKIT BATOK EAST AVENUE 6 KEMING PRIMARY SCHOOL SINGAPORE 659762,659762,19424.7216024809,36376.0146448091,1.34524505261969,103.756264470434,103.756264470434,Keming Primary School
1,KNOWLEDGE PARK EDUCARE PTE LTD (KEMING PRIMARY SCHOOL),90,BUKIT BATOK EAST AVENUE 6,KNOWLEDGE PARK EDUCARE PTE LTD (KEMING PRIMARY SCHOOL),90 BUKIT BATOK EAST AVENUE 6 KNOWLEDGE PARK EDUCARE PTE LTD (KEMING PRIMARY SCHOOL) SINGAPORE 659762,659762,19386.7443935787,36355.9404942542,1.34506349843091,103.75592322797,103.75592322797,Keming Primary School
0,TAMPINES NORTH PRIMARY SCHOOL,30,TAMPINES AVENUE 9,TAMPINES NORTH PRIMARY SCHOOL,30 TAMPINES AVENUE 9 TAMPINES NORTH PRIMARY SCHOOL SINGAPORE 529565,529565,40866.9650124414,38084.2010184471,1.36069171976908,103.948936797596,103.948936797596,Tampines North Primary School
1,BIG HEART STUDENT CARE (TAMPINES NORTH PRIMARY SCHOOL),30,TAMPINES AVENUE 9,BIG HEART STUDENT CARE (TAMPINES NORTH PRIMARY SCHOOL),30 TAMPINES AVENUE 9 BIG HEART STUDENT CARE (TAMPINES NORTH PRIMARY SCHOOL) SINGAPORE 529565,529565,40848.2810703805,38061.6583322138,1.36048786025607,103.948768900518,103.948768900518,Tampines North Primary School
0,NAVAL BASE PRIMARY SCHOOL,7,YISHUN AVENUE 4,NAVAL BASE PRIMARY SCHOOL,7 YISHUN AVENUE 4 NAVAL BASE PRIMARY SCHOOL SINGAPORE 769028,769028,28609.7464481536,44230.5805732943,1.41628015341874,103.838797686677,103.838797686677,Naval Base Primary School
0,ANDERSON PRIMARY SCHOOL,19,ANG MO KIO AVENUE 9,ANDERSON PRIMARY SCHOOL,19 ANG MO KIO AVENUE 9 ANDERSON PRIMARY SCHOOL SINGAPORE 569785,569785,28881.3767822692,40734.844385745,1.38466596519595,103.841238418213,103.841238418213,Anderson Primary School
0,FARRER PARK PRIMARY SCHOOL,2,FARRER PARK ROAD,FARRER PARK PRIMARY SCHOOL,2 FARRER PARK ROAD FARRER PARK PRIMARY SCHOOL SINGAPORE 217567,217567,29956.9435603339,32755.5662222542,1.31250416162069,103.850902684573,103.850902684573,Farrer Park Primary School
0,CHONGZHENG PRIMARY SCHOOL,1,TAMPINES STREET 21,CHONGZHENG PRIMARY SCHOOL,1 TAMPINES STREET 21 CHONGZHENG PRIMARY SCHOOL SINGAPORE 529392,529392,41121.6977906274,36967.741679823,1.35059476908513,103.951225249062,103.951225249062,Chongzheng Primary School
1,BIG HEART STUDENT CARE (CHONGZHENG PRIMARY SCHOOL),1,TAMPINES STREET 21,BIG HEART STUDENT CARE (CHONGZHENG PRIMARY SCHOOL),1 TAMPINES STREET 21 BIG HEART STUDENT CARE (CHONGZHENG PRIMARY SCHOOL) SINGAPORE 529392,529392,41131.9416870372,36969.5707135443,1.35061130568554,103.951317297552,103.951317297552,Chongzheng Primary School
0,WHITE SANDS PRIMARY SCHOOL,2,PASIR RIS STREET 11,WHITE SANDS PRIMARY SCHOOL,2 PASIR RIS STREET 11 WHITE SANDS PRIMARY SCHOOL SINGAPORE 519075,519075,42203.6701820865,38617.9145289864,1.36551781309106,103.960948215572,103.960948215572,White Sands Primary School
1,LEARNING LEAP PTE LTD (WHITE SANDS PRIMARY SCHOOL),2,PASIR RIS STREET 11,LEARNING LEAP PTE LTD (WHITE SANDS PRIMARY SCHOOL),2 PASIR RIS STREET 11 LEARNING LEAP PTE LTD (WHITE SANDS PRIMARY SCHOOL) SINGAPORE 519075,519075,42200.4040850364,38622.2634026185,1.36555714422194,103.960918869591,103.960918869591,White Sands Primary School
